full_name,spec_B,diameter,epoch,a,e,i,om,w,ma,moid
"139289 (2001 KR1)",,1.126,2458600.5,1.25962946723017,.8412425671111599,23.2507499943003,102.7752194615506,291.4303693837605,193.7293073362673,.178363
"139345 (2001 KA67)",,2.586,2458600.5,1.804167158817003,.7021009137427378,22.36449606018235,108.5519923178619,37.73725087724383,160.4905871014565,.264399
"140158 (2001 SX169)",,0.566,2458600.5,1.347154589863635,.4606853694923336,2.515487158162215,126.8696941829043,42.64069733862332,274.0155409032875,.0260655
"141484 (2002 DB4)",,0.941,2458600.5,.8579343437250698,.3694725801596312,16.60319585125309,234.2584177676027,94.12675216560008,318.8645391050624,.152802
"142464 (2002 TC9)",,0.886,2458600.5,1.233460578942236,.1544841347997792,16.27835714463496,191.8514409865111,29.26142755494029,186.0141254457103,.0593575
"142563 (2002 TR69)",,0.860,2458600.5,1.659816878802533,.3435309213010858,20.48868258928047,341.9899452863385,192.2159321929898,122.6590050366608,.103351
"142781 (2002 UM11)",,1.595,2458600.5,1.950930006846403,.3878003072875828,41.04005522779502,229.0204403277813,228.9964171777766,336.8799276169953,.31118
"143624 (2003 HM16)",,2.137,2458600.5,1.966892606895773,.5764139832710253,35.59907414149023,195.9620165270809,47.0245549442716,268.2065569407035,.0505862
"144901 (2004 WG1)",,2.240,2458600.5,1.639877897994463,.5215335573039221,13.04176902711949,42.02029411533274,232.4305465050323,52.63171163214063,.0553007
"152558 (1990 SA)",,1.4,2458600.5,2.01351614742451,.4417568725048113,38.14162782420572,172.1860069633922,115.1110413953935,30.27892880040744,.307878
"152679 (1998 KU2)",Cb,4.692,2458600.5,2.251530091074135,.5525425286601051,4.926743157784012,205.7671085874148,120.2433292915078,38.73997656661245,.0600285
"152889 (2000 CF59)",,1.022,2458600.5,1.679333670032219,.640590482164852,41.55689822404696,141.7694200220718,222.4442618676229,347.204799611676,.315803
"152931 (2000 EA107)",Q,1.646,2458600.5,.9297583816975237,.4557259432271408,28.57903644496349,52.89694016814674,278.0103559307681,298.5015613637217,.161775
"152941 (2000 FM10)",,0.820,2458600.5,1.481090951694592,.6806736005281985,8.733329842967882,18.55010250415851,343.948501544195,68.22950784896001,.127001
"152952 (2000 GC2)",,0.776,2458600.5,1.383520635048491,.1870540815453527,55.29341156796078,358.6979291651204,280.2314383144338,173.4853367657405,.279302
"152964 (2000 GP82)",,0.788,2458600.5,1.396271852619449,.3934306081151096,13.22971366165823,114.881410944626,333.0427149949,267.8660353161244,.0910184
"152978 (2000 GJ147)",S:,0.531,2458600.5,1.162147716325445,.2366616048841237,25.00720537890907,57.87141243526155,240.796326497654,.754728335106426,.0256529
"153201 (2000 WO107)",X,0.510,2458600.5,.9115351760110958,.7806841882623806,7.770972173234761,69.25502083541213,213.7115870647982,113.4465043546998,.00307529
"153219 (2000 YM29)",,1.289,2458600.5,2.089433942093004,.4350860083816651,40.32093449902617,116.5775159964488,.7048542836681932,21.1697124812865,.196982
"153249 (2001 BW15)",,3.160,2458600.5,2.117695129369313,.5909490313778335,41.23611624076945,328.8996497560911,297.9462013419742,255.3055109970442,.0568081
"153271 (2001 CL42)",,2.441,2458600.5,1.557107702283439,.4024954096638624,21.65389620206791,12.06851696986397,270.7999003483661,44.84677105266316,.191777
"153591 (2001 SN263)",,2,2458600.5,1.98681910731675,.4780845190915542,6.683600024292974,325.8150525166218,172.8551514412495,359.7546165037114,.0514935
"153814 (2001 WN5)",,0.932,2458600.5,1.71189651326091,.4670902894184648,1.920032877265214,277.5058976509946,44.53740550520732,310.3213393195421,.00175661
"153842 (2001 XT30)",,1.759,2458600.5,2.752391415366937,.5661985204789034,8.996629376319147,139.8832815635673,219.318133586926,326.6544560741955,.211241
"154029 (2002 CY46)",,1.119,2458600.5,1.890228079577708,.4625324590773423,44.18402902800921,346.1723321290953,319.3739543612221,132.3426609515491,.0872604
"154035 (2002 CV59)",,1.098,2458600.5,1.210061072317204,.5320834819628998,49.0539470129961,13.1028952615647,347.128062276153,183.4805145297222,.425797
"154276 (2002 SY50)",,1.060,2458600.5,1.7043557651337,.689368297289626,8.743171252457499,34.28040338803786,99.40038973085139,122.3099154455141,.00283786
"154589 (2003 MX2)",,1.109,2458600.5,2.289206992467916,.4588428379773727,7.183765642916333,58.68899092693449,300.5635359021222,160.7241816302355,.263434
"154993 (2005 EA94)",,0.828,2458600.5,1.516879747926361,.6636930427174409,10.32759130554414,104.1333047459152,308.9673344360275,228.890573145341,.0748828
"159454 (2000 DJ8)",,0.577,2458600.5,1.411263310808056,.2527284617523114,37.747074116545,139.5444508962036,262.9316549876636,252.2583803415066,.246484
"159518 (2001 FF7)",,1.784,2458600.5,2.103887388613555,.444613999505388,47.51462711889332,190.1618875014926,59.36913466242807,314.6717512103752,.341219
"159560 (2001 TO103)",,1.156,2458600.5,2.213304354110103,.4346118917255182,25.72731270826387,42.2667994401814,261.5777990666434,169.0058761996815,.472439
"159686 (2002 LB6)",,1.845,2458600.5,1.804257326388781,.6879782093001228,24.71919966423216,244.7627027145766,141.0067796376415,310.3670106854957,.28239
"159857 (2004 LJ1)",,3.070,2458600.5,2.262877143176896,.5935224608308721,23.14228213856423,235.5834558369161,139.9763862421104,100.2961791102775,.0159008
"161989 Cacus (1978 CA)",,1.9,2458600.5,1.123117228310595,.2140097254062911,26.0598473365478,161.2361828524354,102.175880685652,122.2272578898243,.0148158
"162038 (1996 DH)",,1.959,2458600.5,1.586894177785487,.2765740058976734,17.23155932357209,309.292329155341,351.5221593742401,76.00552907742525,.13448
"162058 (1997 AE12)",,0.847,2458600.5,2.36622089072578,.554210732000745,4.853217463031026,304.8104282813533,60.83005200364917,98.92372650642041,.0874596
"162080 (1998 DG16)",,0.777,2458600.5,.8966510910277594,.3581612995626507,16.20571354029862,344.3538591605822,356.8538276101921,162.2282549435126,.188032
"162116 (1998 SA15)",,0.538,2458600.5,1.915699441586256,.5585793242859179,7.111533267830212,114.1965197170208,331.4344786056845,244.2621971198428,.0469476
"162181 (1999 LF6)",,0.729,2458600.5,1.409457939633212,.2804260531344869,18.94340361833273,208.5243320408344,140.8425311638368,263.7873976519551,.0642271
"162269 (1999 VO6)",,1.010,2458600.5,1.135416059076943,.7379219745578181,40.10915391687712,206.8860766355761,302.4953773541552,343.8702866673488,.0773106
"162463 (2000 JH5)",,1.048,2458600.5,1.145568514646217,.2382630526324126,22.21669145271437,80.20686630195031,353.4635617492934,304.5068311633196,.110256
"162483 (2000 PJ5)",,0.906,2458600.5,.8727037759776108,.3735964296234178,51.18092736682592,124.4189903202379,7.631656184789465,124.3296260625977,.175179
"162566 (2000 RJ34)",,4.299,2458600.5,2.637872096254486,.5740715631153399,13.85587367444836,331.2777035602052,143.3348702646217,79.69208199000926,.178522
"162741 (2000 WG6)",,3.945,2458600.5,2.317855366865534,.4995151573788211,11.84767296851117,60.76057509577345,330.1116004685272,81.35683783164687,.189587
"162903 (2001 JV2)",,1.086,2458600.5,1.304626342132299,.237391014629778,47.48910344468519,216.9113764038556,301.2483995658042,73.60385840882249,.0871132
"162980 (2001 RR17)",,0.790,2458600.5,1.553004496615481,.4887388182696871,30.39507725096103,177.6340321309662,351.4287655128775,228.4321592786165,.197734
"162998 (2001 SK162)",T,0.875,2458600.5,1.92605586867466,.474403800866053,1.681001867106202,285.3750983091733,186.3793812566828,163.82197654612,.0293707
"163243 (2002 FB3)",,1.682,2458600.5,.7615842071486941,.6016703280358602,20.27642161883876,203.5977118263195,148.3082136971612,23.47726434424015,.00334373
"163691 (2003 BB43)",,3.449,2458600.5,2.414333663985418,.5226438483769216,40.88274000574538,149.0094480864915,60.6415304912211,102.1274507956523,.350258
"164121 (2003 YT1)",,1.717,2458600.5,1.109619989868925,.2919458441918975,44.06218247830802,38.3337232561802,91.04113305370559,348.70616460536,.00253962
"168318 (1989 DA)",,0.9,2458600.5,2.161674867449092,.5430667178598036,6.493883018427796,349.1345711083774,139.8113076889988,182.9072338471598,.0434455
"168378 (1997 ET30)",,1.089,2458600.5,2.137591160269257,.448715097509899,6.814925377684326,23.28511880102151,263.3243131770546,315.7228440998068,.206592
"172034 (2001 WR1)",,0.631,2458600.5,1.277247250655394,.2025888244393514,25.02954330135236,6.526931114855826,48.55232072058639,17.15286946126697,.0751952
"175706 (1996 FG3)",C,1.196,2458600.5,1.053846743177246,.3496826090567573,1.991129470129869,299.6860716475834,24.05205752941965,11.26130620266359,.0283416
"184990 (2006 KE89)",,2.039,2458600.5,1.053290305838476,.7991465366036439,45.10312607805861,88.62333722809279,299.2121988663096,292.9802565627809,.229585
"185716 (1998 SF35)",,0.629,2458600.5,1.685360999567736,.2736523861228733,35.19184611739735,218.6172079929127,253.7236709536123,74.17480612832509,.413783
"185851 (2000 DP107)",,0.863,2458600.5,1.365259037867057,.3766546569005876,8.671480113923684,358.6866295212342,289.7556344149141,266.4666012185071,.0147662
"190166 (2005 UP156)",,1.045,2458600.5,2.115506124010909,.4698754895652675,4.208173577565632,193.3939283345953,91.18398209518523,210.6672993865634,.130535
"194268 (2001 UY4)",X,1.244,2458600.5,1.452897251117182,.7875270112223444,5.436833702784078,160.7808806143993,107.7174283925816,28.77301225686872,.0261373
"198856 (2005 LR3)",,0.742,2458600.5,1.653847461819361,.3354239458056679,25.00659232894811,73.81929730885066,26.3187657816446,318.6277262553129,.139062
"209924 (2005 WS55)",,1.861,2458600.5,2.028993279108398,.4537946409290955,23.7864267978501,283.612210563335,203.2962763345201,174.5375748722931,.147684
"214088 (2004 JN13)",,2.423,2458600.5,2.893251350363623,.6897872723865761,13.34194933231443,85.14263222113472,279.1098826355438,332.9233762818554,.135824
"215442 (2002 MQ3)",,1.075,2458600.5,.9136463587241594,.2742734061146309,36.28611556525811,109.0728868122768,346.8843722236288,255.192966627928,.134172
